{
  "type": "FeatureCollection",
  "properties": {
    "xypi": {
      "version": 3,
      "bpm": 150,
      "channel": {
        "name": "mlines_x_time",
        "spatial_pattern_id": "lines_dual",
        "x_axis": "time",
        "y_axis": "pitch",
        "sound": {
          "mode": "sample",
          "root_midi": 0,
          "pitch_range": 4,
          "note_semitones": 12
        },
        "time": {
          "n_steps": 8,
          "bpm": 150,
          "beats_per_step": 1.0,
          "time_pattern": 1,
          "flow": "x"
        },
        "space": {
          "mode": "points-0",
          "pitch_cells": 5,
          "octave_cells": 4,
          "center_x": null,
          "center_y": null
        }
      },
      "grid": {
        "time": 8,
        "pitch": 5
      },
      "grid_layout": {
        "time_flow": "x",
        "time_cells": 8,
        "pitch_cells": 5,
        "time_axis": "x",
        "pitch_axis": "y"
      },
      "source_points": [
        {
          "x": 10.0,
          "y": 1.0
        },
        {
          "x": 12.0,
          "y": 3.0
        },
        {
          "x": 14.0,
          "y": 2.0
        },
        {
          "x": 11.0,
          "y": 5.0
        },
        {
          "x": 13.0,
          "y": 7.0
        },
        {
          "x": 15.0,
          "y": 6.0
        }
      ],
      "events": [
        {
          "step": 0,
          "time_beats": 0.0,
          "time_sec": 0.0,
          "x": 10.0,
          "y": 1.0,
          "midi": 0,
          "value": 1.0,
          "hit": true,
          "inside": true,
          "grid_col": 0,
          "grid_row": 0
        },
        {
          "step": 1,
          "time_beats": 1.0,
          "time_sec": 0.4,
          "x": 11.0,
          "y": 5.0,
          "midi": 0,
          "value": 3.0,
          "hit": true,
          "inside": true,
          "grid_col": 1,
          "grid_row": 3
        },
        {
          "step": 2,
          "time_beats": 2.0,
          "time_sec": 0.8,
          "x": 0.0,
          "y": 0.0,
          "midi": 0,
          "value": 0.0,
          "hit": false,
          "inside": false,
          "grid_col": -1,
          "grid_row": -1
        },
        {
          "step": 3,
          "time_beats": 3.0,
          "time_sec": 1.2000000000000002,
          "x": 12.0,
          "y": 3.0,
          "midi": 0,
          "value": 2.0,
          "hit": true,
          "inside": true,
          "grid_col": 3,
          "grid_row": 1
        },
        {
          "step": 4,
          "time_beats": 4.0,
          "time_sec": 1.6,
          "x": 13.0,
          "y": 7.0,
          "midi": 0,
          "value": 1.0,
          "hit": true,
          "inside": true,
          "grid_col": 4,
          "grid_row": 4
        },
        {
          "step": 5,
          "time_beats": 5.0,
          "time_sec": 2.0,
          "x": 0.0,
          "y": 0.0,
          "midi": 0,
          "value": 0.0,
          "hit": false,
          "inside": false,
          "grid_col": -1,
          "grid_row": -1
        },
        {
          "step": 6,
          "time_beats": 6.0,
          "time_sec": 2.4000000000000004,
          "x": 14.0,
          "y": 2.0,
          "midi": 0,
          "value": 1.0,
          "hit": true,
          "inside": true,
          "grid_col": 6,
          "grid_row": 0
        },
        {
          "step": 7,
          "time_beats": 7.0,
          "time_sec": 2.8000000000000003,
          "x": 15.0,
          "y": 6.0,
          "midi": 0,
          "value": 4.0,
          "hit": true,
          "inside": true,
          "grid_col": 7,
          "grid_row": 4
        }
      ]
    }
  },
  "features": [
    {
      "type": "Feature",
      "id": "lines_dual",
      "properties": {
        "xypi_id": "lines_dual"
      },
      "geometry": {
        "type": "MultiLineString",
        "coordinates": [
          [
            [
              10.0,
              1.0
            ],
            [
              12.0,
              3.0
            ],
            [
              14.0,
              2.0
            ]
          ],
          [
            [
              11.0,
              5.0
            ],
            [
              13.0,
              7.0
            ],
            [
              15.0,
              6.0
            ]
          ]
        ]
      }
    }
  ]
}