{
  "type": "FeatureCollection",
  "properties": {
    "xypi": {
      "version": 3,
      "bpm": 150,
      "channel": {
        "name": "pts_x_time",
        "spatial_pattern_id": "pts_scatter",
        "x_axis": "time",
        "y_axis": "pitch",
        "sound": {
          "mode": "synth",
          "root_midi": 48,
          "pitch_range": 12,
          "note_semitones": 12
        },
        "time": {
          "n_steps": 8,
          "bpm": 150,
          "beats_per_step": 1.0,
          "time_pattern": 1,
          "flow": "x"
        },
        "space": {
          "mode": "points-0",
          "pitch_cells": 6,
          "octave_cells": 4,
          "center_x": null,
          "center_y": null
        }
      },
      "grid": {
        "time": 8,
        "pitch": 6
      },
      "grid_layout": {
        "time_flow": "x",
        "time_cells": 8,
        "pitch_cells": 6,
        "time_axis": "x",
        "pitch_axis": "y"
      },
      "source_points": [
        {
          "x": 2.0,
          "y": 2.0
        },
        {
          "x": 4.0,
          "y": 3.0
        },
        {
          "x": 6.0,
          "y": 2.0
        },
        {
          "x": 5.0,
          "y": 5.0
        },
        {
          "x": 3.0,
          "y": 6.0
        }
      ],
      "events": [
        {
          "step": 0,
          "time_beats": 0.0,
          "time_sec": 0.0,
          "x": 2.0,
          "y": 2.0,
          "midi": 48,
          "value": 48.0,
          "hit": true,
          "inside": true,
          "grid_col": 0,
          "grid_row": 0
        },
        {
          "step": 1,
          "time_beats": 1.0,
          "time_sec": 0.4,
          "x": 0.0,
          "y": 0.0,
          "midi": 0,
          "value": 0.0,
          "hit": false,
          "inside": false,
          "grid_col": -1,
          "grid_row": -1
        },
        {
          "step": 2,
          "time_beats": 2.0,
          "time_sec": 0.8,
          "x": 3.0,
          "y": 6.0,
          "midi": 48,
          "value": 48.0,
          "hit": true,
          "inside": true,
          "grid_col": 2,
          "grid_row": 5
        },
        {
          "step": 3,
          "time_beats": 3.0,
          "time_sec": 1.2000000000000002,
          "x": 0.0,
          "y": 0.0,
          "midi": 0,
          "value": 0.0,
          "hit": false,
          "inside": false,
          "grid_col": -1,
          "grid_row": -1
        },
        {
          "step": 4,
          "time_beats": 4.0,
          "time_sec": 1.6,
          "x": 4.0,
          "y": 3.0,
          "midi": 51,
          "value": 51.0,
          "hit": true,
          "inside": true,
          "grid_col": 4,
          "grid_row": 1
        },
        {
          "step": 5,
          "time_beats": 5.0,
          "time_sec": 2.0,
          "x": 0.0,
          "y": 0.0,
          "midi": 0,
          "value": 0.0,
          "hit": false,
          "inside": false,
          "grid_col": -1,
          "grid_row": -1
        },
        {
          "step": 6,
          "time_beats": 6.0,
          "time_sec": 2.4000000000000004,
          "x": 5.0,
          "y": 5.0,
          "midi": 57,
          "value": 57.0,
          "hit": true,
          "inside": true,
          "grid_col": 6,
          "grid_row": 4
        },
        {
          "step": 7,
          "time_beats": 7.0,
          "time_sec": 2.8000000000000003,
          "x": 6.0,
          "y": 2.0,
          "midi": 48,
          "value": 48.0,
          "hit": true,
          "inside": true,
          "grid_col": 7,
          "grid_row": 0
        }
      ]
    }
  },
  "features": [
    {
      "type": "Feature",
      "id": "pts_scatter",
      "properties": {
        "xypi_id": "pts_scatter"
      },
      "geometry": {
        "type": "MultiPoint",
        "coordinates": [
          [
            2.0,
            2.0
          ],
          [
            4.0,
            3.0
          ],
          [
            6.0,
            2.0
          ],
          [
            5.0,
            5.0
          ],
          [
            3.0,
            6.0
          ]
        ]
      }
    }
  ]
}