{
  "type": "FeatureCollection",
  "properties": {
    "xypi": {
      "version": 3,
      "bpm": 150,
      "channel": {
        "name": "radial_note_octave",
        "spatial_pattern_id": "radial_cloud",
        "x_axis": "pitch",
        "y_axis": "octave",
        "sound": {
          "mode": "synth",
          "root_midi": 36,
          "pitch_range": 12,
          "note_semitones": 12
        },
        "time": {
          "n_steps": 8,
          "bpm": 150,
          "beats_per_step": 1.0,
          "time_pattern": 1,
          "flow": "radial"
        },
        "space": {
          "mode": "points-0",
          "pitch_cells": 12,
          "octave_cells": 4,
          "center_x": 8.0,
          "center_y": 8.0
        }
      },
      "grid": {
        "time": 8,
        "pitch": 12
      },
      "grid_layout": {
        "time_flow": "radial",
        "time_cells": 8,
        "pitch_cells": 12,
        "time_axis": "radial",
        "pitch_axis_x": "pitch",
        "pitch_axis_y": "octave"
      },
      "source_points": [
        {
          "x": 8.0,
          "y": 8.0
        },
        {
          "x": 9.8,
          "y": 8.0
        },
        {
          "x": 8.9,
          "y": 9.55884572681199
        },
        {
          "x": 7.1000000000000005,
          "y": 9.55884572681199
        },
        {
          "x": 6.2,
          "y": 8.0
        },
        {
          "x": 7.1,
          "y": 6.441154273188011
        },
        {
          "x": 8.9,
          "y": 6.44115427318801
        },
        {
          "x": 11.6,
          "y": 8.0
        },
        {
          "x": 9.8,
          "y": 11.11769145362398
        },
        {
          "x": 6.200000000000001,
          "y": 11.11769145362398
        },
        {
          "x": 4.4,
          "y": 8.0
        },
        {
          "x": 6.199999999999998,
          "y": 4.882308546376022
        },
        {
          "x": 9.8,
          "y": 4.882308546376021
        },
        {
          "x": 13.4,
          "y": 8.0
        },
        {
          "x": 10.700000000000001,
          "y": 12.676537180435968
        },
        {
          "x": 5.300000000000001,
          "y": 12.676537180435968
        },
        {
          "x": 2.5999999999999996,
          "y": 8.0
        },
        {
          "x": 5.299999999999997,
          "y": 3.3234628195640328
        },
        {
          "x": 10.700000000000001,
          "y": 3.323462819564031
        },
        {
          "x": 15.2,
          "y": 8.0
        },
        {
          "x": 11.600000000000001,
          "y": 14.235382907247958
        },
        {
          "x": 4.400000000000001,
          "y": 14.23538290724796
        },
        {
          "x": 0.7999999999999998,
          "y": 8.0
        },
        {
          "x": 4.399999999999997,
          "y": 1.7646170927520437
        },
        {
          "x": 11.600000000000001,
          "y": 1.764617092752042
        }
      ],
      "events": [
        {
          "step": 0,
          "time_beats": 0.0,
          "time_sec": 0.0,
          "x": 8.0,
          "y": 8.0,
          "midi": 54,
          "value": 54.0,
          "hit": true,
          "inside": true,
          "grid_col": 6,
          "grid_row": 1
        },
        {
          "step": 1,
          "time_beats": 1.0,
          "time_sec": 0.4,
          "x": 9.8,
          "y": 8.0,
          "midi": 55,
          "value": 55.0,
          "hit": true,
          "inside": true,
          "grid_col": 7,
          "grid_row": 1
        },
        {
          "step": 2,
          "time_beats": 2.0,
          "time_sec": 0.8,
          "x": 0.0,
          "y": 0.0,
          "midi": 0,
          "value": 0.0,
          "hit": false,
          "inside": false,
          "grid_col": -1,
          "grid_row": -1
        },
        {
          "step": 3,
          "time_beats": 3.0,
          "time_sec": 1.2000000000000002,
          "x": 11.6,
          "y": 8.0,
          "midi": 57,
          "value": 57.0,
          "hit": true,
          "inside": true,
          "grid_col": 9,
          "grid_row": 1
        },
        {
          "step": 4,
          "time_beats": 4.0,
          "time_sec": 1.6,
          "x": 13.4,
          "y": 8.0,
          "midi": 58,
          "value": 58.0,
          "hit": true,
          "inside": true,
          "grid_col": 10,
          "grid_row": 1
        },
        {
          "step": 5,
          "time_beats": 5.0,
          "time_sec": 2.0,
          "x": 0.0,
          "y": 0.0,
          "midi": 0,
          "value": 0.0,
          "hit": false,
          "inside": false,
          "grid_col": -1,
          "grid_row": -1
        },
        {
          "step": 6,
          "time_beats": 6.0,
          "time_sec": 2.4000000000000004,
          "x": 15.2,
          "y": 8.0,
          "midi": 48,
          "value": 48.0,
          "hit": true,
          "inside": true,
          "grid_col": 11,
          "grid_row": 1
        },
        {
          "step": 7,
          "time_beats": 7.0,
          "time_sec": 2.8000000000000003,
          "x": 0.0,
          "y": 0.0,
          "midi": 0,
          "value": 0.0,
          "hit": false,
          "inside": false,
          "grid_col": -1,
          "grid_row": -1
        }
      ],
      "radial": {
        "center": {
          "x": 8.0,
          "y": 8.0
        },
        "max_radius": 9.524704719832528
      }
    }
  },
  "features": [
    {
      "type": "Feature",
      "id": "radial_cloud",
      "properties": {
        "xypi_id": "radial_cloud"
      },
      "geometry": {
        "type": "MultiPoint",
        "coordinates": [
          [
            8.0,
            8.0
          ],
          [
            9.8,
            8.0
          ],
          [
            8.9,
            9.55884572681199
          ],
          [
            7.1000000000000005,
            9.55884572681199
          ],
          [
            6.2,
            8.0
          ],
          [
            7.1,
            6.441154273188011
          ],
          [
            8.9,
            6.44115427318801
          ],
          [
            11.6,
            8.0
          ],
          [
            9.8,
            11.11769145362398
          ],
          [
            6.200000000000001,
            11.11769145362398
          ],
          [
            4.4,
            8.0
          ],
          [
            6.199999999999998,
            4.882308546376022
          ],
          [
            9.8,
            4.882308546376021
          ],
          [
            13.4,
            8.0
          ],
          [
            10.700000000000001,
            12.676537180435968
          ],
          [
            5.300000000000001,
            12.676537180435968
          ],
          [
            2.5999999999999996,
            8.0
          ],
          [
            5.299999999999997,
            3.3234628195640328
          ],
          [
            10.700000000000001,
            3.323462819564031
          ],
          [
            15.2,
            8.0
          ],
          [
            11.600000000000001,
            14.235382907247958
          ],
          [
            4.400000000000001,
            14.23538290724796
          ],
          [
            0.7999999999999998,
            8.0
          ],
          [
            4.399999999999997,
            1.7646170927520437
          ],
          [
            11.600000000000001,
            1.764617092752042
          ]
        ]
      }
    }
  ]
}