{
  "type": "FeatureCollection",
  "properties": {
    "xypi": {
      "version": 4,
      "bpm": 150,
      "channel": {
        "name": "tri_sync",
        "spatial_pattern_id": "triangle",
        "x_axis": "pitch",
        "y_axis": "release",
        "sound": {
          "mode": "synth",
          "root_midi": 48,
          "pitch_range": 12,
          "note_semitones": 12
        },
        "time": {
          "n_steps": 8,
          "bpm": 150,
          "beats_per_step": 1.0,
          "time_pattern": 1,
          "flow": "moving_points"
        },
        "space": {
          "mode": "points-0",
          "pitch_cells": 8,
          "octave_cells": 4,
          "release_cells": 6,
          "center_x": null,
          "center_y": null,
          "moving_points": {
            "edges": [
              [
                0,
                1
              ],
              [
                1,
                2
              ],
              [
                2,
                0
              ]
            ],
            "movers": [
              {
                "name": "walker",
                "movement": "sync",
                "speed": 1.0,
                "path": [
                  0,
                  1,
                  2,
                  0
                ],
                "start_node": 0,
                "loop": true
              }
            ]
          }
        }
      },
      "grid": {
        "time": 8,
        "pitch": 8
      },
      "grid_layout": {
        "time_flow": "moving_points",
        "time_cells": 8,
        "pitch_cells": 8,
        "time_axis": "moving_points",
        "pitch_axis": "x",
        "release_axis": "y",
        "release_cells": 6,
        "grid_bounds": {
          "minx": 1.625,
          "miny": 1.5833333333333333,
          "maxx": 8.375,
          "maxy": 7.416666666666667
        }
      },
      "source_points": [
        {
          "x": 2.0,
          "y": 2.0
        },
        {
          "x": 8.0,
          "y": 2.0
        },
        {
          "x": 5.0,
          "y": 7.0
        }
      ],
      "events": [
        {
          "step": 0,
          "time_beats": 0.0,
          "time_sec": 0.0,
          "x": 2.0,
          "y": 2.0,
          "midi": 48,
          "value": 48.0,
          "hit": true,
          "inside": true,
          "grid_col": 0,
          "grid_row": 0,
          "activations": [
            {
              "x": 2.0,
              "y": 2.0,
              "grid_col": 0,
              "grid_row": 0,
              "midi": 48,
              "value": 48.0,
              "hit": true,
              "release": 0.07142857142857144,
              "mover": "walker"
            }
          ]
        },
        {
          "step": 1,
          "time_beats": 1.0,
          "time_sec": 0.4,
          "x": 8.0,
          "y": 2.0,
          "midi": 59,
          "value": 59.0,
          "hit": true,
          "inside": true,
          "grid_col": 7,
          "grid_row": 0,
          "activations": [
            {
              "x": 8.0,
              "y": 2.0,
              "grid_col": 7,
              "grid_row": 0,
              "midi": 59,
              "value": 59.0,
              "hit": true,
              "release": 0.07142857142857144,
              "mover": "walker"
            }
          ]
        },
        {
          "step": 2,
          "time_beats": 2.0,
          "time_sec": 0.8,
          "x": 5.0,
          "y": 7.0,
          "midi": 54,
          "value": 54.0,
          "hit": true,
          "inside": true,
          "grid_col": 4,
          "grid_row": 5,
          "activations": [
            {
              "x": 5.0,
              "y": 7.0,
              "grid_col": 4,
              "grid_row": 5,
              "midi": 54,
              "value": 54.0,
              "hit": true,
              "release": 0.9285714285714285,
              "mover": "walker"
            }
          ]
        },
        {
          "step": 3,
          "time_beats": 3.0,
          "time_sec": 1.2000000000000002,
          "x": 2.0,
          "y": 2.0,
          "midi": 48,
          "value": 48.0,
          "hit": true,
          "inside": true,
          "grid_col": 0,
          "grid_row": 0,
          "activations": [
            {
              "x": 2.0,
              "y": 2.0,
              "grid_col": 0,
              "grid_row": 0,
              "midi": 48,
              "value": 48.0,
              "hit": true,
              "release": 0.07142857142857144,
              "mover": "walker"
            }
          ]
        },
        {
          "step": 4,
          "time_beats": 4.0,
          "time_sec": 1.6,
          "x": 2.0,
          "y": 2.0,
          "midi": 48,
          "value": 48.0,
          "hit": true,
          "inside": true,
          "grid_col": 0,
          "grid_row": 0,
          "activations": [
            {
              "x": 2.0,
              "y": 2.0,
              "grid_col": 0,
              "grid_row": 0,
              "midi": 48,
              "value": 48.0,
              "hit": true,
              "release": 0.07142857142857144,
              "mover": "walker"
            }
          ]
        },
        {
          "step": 5,
          "time_beats": 5.0,
          "time_sec": 2.0,
          "x": 8.0,
          "y": 2.0,
          "midi": 59,
          "value": 59.0,
          "hit": true,
          "inside": true,
          "grid_col": 7,
          "grid_row": 0,
          "activations": [
            {
              "x": 8.0,
              "y": 2.0,
              "grid_col": 7,
              "grid_row": 0,
              "midi": 59,
              "value": 59.0,
              "hit": true,
              "release": 0.07142857142857144,
              "mover": "walker"
            }
          ]
        },
        {
          "step": 6,
          "time_beats": 6.0,
          "time_sec": 2.4000000000000004,
          "x": 5.0,
          "y": 7.0,
          "midi": 54,
          "value": 54.0,
          "hit": true,
          "inside": true,
          "grid_col": 4,
          "grid_row": 5,
          "activations": [
            {
              "x": 5.0,
              "y": 7.0,
              "grid_col": 4,
              "grid_row": 5,
              "midi": 54,
              "value": 54.0,
              "hit": true,
              "release": 0.9285714285714285,
              "mover": "walker"
            }
          ]
        },
        {
          "step": 7,
          "time_beats": 7.0,
          "time_sec": 2.8000000000000003,
          "x": 2.0,
          "y": 2.0,
          "midi": 48,
          "value": 48.0,
          "hit": true,
          "inside": true,
          "grid_col": 0,
          "grid_row": 0,
          "activations": [
            {
              "x": 2.0,
              "y": 2.0,
              "grid_col": 0,
              "grid_row": 0,
              "midi": 48,
              "value": 48.0,
              "hit": true,
              "release": 0.07142857142857144,
              "mover": "walker"
            }
          ]
        }
      ],
      "moving_points": {
        "nodes": [
          {
            "index": 0,
            "x": 2.0,
            "y": 2.0
          },
          {
            "index": 1,
            "x": 8.0,
            "y": 2.0
          },
          {
            "index": 2,
            "x": 5.0,
            "y": 7.0
          }
        ],
        "edges": [
          [
            0,
            1
          ],
          [
            0,
            2
          ],
          [
            1,
            2
          ]
        ],
        "movers": [
          {
            "name": "walker",
            "movement": "sync",
            "speed": 1.0,
            "path": [
              0,
              1,
              2,
              0
            ],
            "positions": [
              {
                "step": 0,
                "x": 2.0,
                "y": 2.0,
                "node_index": 0,
                "edge": null,
                "edge_t": 0.0,
                "arrival": true
              },
              {
                "step": 1,
                "x": 8.0,
                "y": 2.0,
                "node_index": 1,
                "edge": [
                  0,
                  1
                ],
                "edge_t": 1.0,
                "arrival": true
              },
              {
                "step": 2,
                "x": 5.0,
                "y": 7.0,
                "node_index": 2,
                "edge": [
                  1,
                  2
                ],
                "edge_t": 1.0,
                "arrival": true
              },
              {
                "step": 3,
                "x": 2.0,
                "y": 2.0,
                "node_index": 0,
                "edge": [
                  2,
                  0
                ],
                "edge_t": 1.0,
                "arrival": true
              },
              {
                "step": 4,
                "x": 2.0,
                "y": 2.0,
                "node_index": 0,
                "edge": null,
                "edge_t": 0.0,
                "arrival": true
              },
              {
                "step": 5,
                "x": 8.0,
                "y": 2.0,
                "node_index": 1,
                "edge": [
                  0,
                  1
                ],
                "edge_t": 1.0,
                "arrival": true
              },
              {
                "step": 6,
                "x": 5.0,
                "y": 7.0,
                "node_index": 2,
                "edge": [
                  1,
                  2
                ],
                "edge_t": 1.0,
                "arrival": true
              },
              {
                "step": 7,
                "x": 2.0,
                "y": 2.0,
                "node_index": 0,
                "edge": [
                  2,
                  0
                ],
                "edge_t": 1.0,
                "arrival": true
              }
            ]
          }
        ]
      }
    }
  },
  "features": [
    {
      "type": "Feature",
      "id": "triangle",
      "properties": {
        "xypi_id": "triangle"
      },
      "geometry": {
        "type": "GeometryCollection",
        "geometries": [
          {
            "type": "MultiPoint",
            "coordinates": [
              [
                2.0,
                2.0
              ],
              [
                8.0,
                2.0
              ],
              [
                5.0,
                7.0
              ]
            ]
          },
          {
            "type": "MultiLineString",
            "coordinates": [
              [
                [
                  2.0,
                  2.0
                ],
                [
                  8.0,
                  2.0
                ]
              ],
              [
                [
                  8.0,
                  2.0
                ],
                [
                  5.0,
                  7.0
                ]
              ],
              [
                [
                  5.0,
                  7.0
                ],
                [
                  2.0,
                  2.0
                ]
              ]
            ]
          }
        ]
      }
    }
  ]
}