{
  "type": "FeatureCollection",
  "properties": {
    "xypi": {
      "version": 3,
      "bpm": 150,
      "channel": {
        "name": "poly_c_sample",
        "spatial_pattern_id": "poly_c",
        "x_axis": "time",
        "y_axis": "pitch",
        "sound": {
          "mode": "sample",
          "root_midi": 0,
          "pitch_range": 4,
          "note_semitones": 12
        },
        "time": {
          "n_steps": 8,
          "bpm": 150,
          "beats_per_step": 1.0,
          "time_pattern": 1,
          "flow": "x"
        },
        "space": {
          "mode": "points-0",
          "pitch_cells": 9,
          "octave_cells": 4,
          "center_x": null,
          "center_y": null
        }
      },
      "grid": {
        "time": 8,
        "pitch": 9
      },
      "grid_layout": {
        "time_flow": "x",
        "time_cells": 8,
        "pitch_cells": 9,
        "time_axis": "x",
        "pitch_axis": "y"
      },
      "source_points": [
        {
          "x": 1.0,
          "y": 9.0
        },
        {
          "x": 6.0,
          "y": 10.0
        },
        {
          "x": 7.0,
          "y": 14.0
        },
        {
          "x": 3.0,
          "y": 16.0
        },
        {
          "x": 0.0,
          "y": 13.0
        }
      ],
      "events": [
        {
          "step": 0,
          "time_beats": 0.0,
          "time_sec": 0.0,
          "x": 0.0,
          "y": 13.0,
          "midi": 0,
          "value": 3.0,
          "hit": true,
          "inside": true,
          "grid_col": 0,
          "grid_row": 5
        },
        {
          "step": 1,
          "time_beats": 1.0,
          "time_sec": 0.4,
          "x": 1.0,
          "y": 9.0,
          "midi": 0,
          "value": 1.0,
          "hit": true,
          "inside": true,
          "grid_col": 1,
          "grid_row": 0
        },
        {
          "step": 2,
          "time_beats": 2.0,
          "time_sec": 0.8,
          "x": 0.0,
          "y": 0.0,
          "midi": 0,
          "value": 0.0,
          "hit": false,
          "inside": false,
          "grid_col": -1,
          "grid_row": -1
        },
        {
          "step": 3,
          "time_beats": 3.0,
          "time_sec": 1.2000000000000002,
          "x": 3.0,
          "y": 16.0,
          "midi": 0,
          "value": 1.0,
          "hit": true,
          "inside": true,
          "grid_col": 3,
          "grid_row": 8
        },
        {
          "step": 4,
          "time_beats": 4.0,
          "time_sec": 1.6,
          "x": 0.0,
          "y": 0.0,
          "midi": 0,
          "value": 0.0,
          "hit": false,
          "inside": false,
          "grid_col": -1,
          "grid_row": -1
        },
        {
          "step": 5,
          "time_beats": 5.0,
          "time_sec": 2.0,
          "x": 0.0,
          "y": 0.0,
          "midi": 0,
          "value": 0.0,
          "hit": false,
          "inside": false,
          "grid_col": -1,
          "grid_row": -1
        },
        {
          "step": 6,
          "time_beats": 6.0,
          "time_sec": 2.4000000000000004,
          "x": 6.0,
          "y": 10.0,
          "midi": 0,
          "value": 1.0,
          "hit": true,
          "inside": true,
          "grid_col": 6,
          "grid_row": 1
        },
        {
          "step": 7,
          "time_beats": 7.0,
          "time_sec": 2.8000000000000003,
          "x": 7.0,
          "y": 14.0,
          "midi": 0,
          "value": 3.0,
          "hit": true,
          "inside": true,
          "grid_col": 7,
          "grid_row": 6
        }
      ]
    }
  },
  "features": [
    {
      "type": "Feature",
      "id": "poly_c",
      "properties": {
        "xypi_id": "poly_c"
      },
      "geometry": {
        "type": "Polygon",
        "coordinates": [
          [
            [
              1.0,
              9.0
            ],
            [
              6.0,
              10.0
            ],
            [
              7.0,
              14.0
            ],
            [
              3.0,
              16.0
            ],
            [
              0.0,
              13.0
            ],
            [
              1.0,
              9.0
            ]
          ]
        ]
      }
    }
  ]
}