{
  "type": "FeatureCollection",
  "properties": {
    "xypi": {
      "version": 4,
      "bpm": 150,
      "channel": {
        "name": "poly_a_synth",
        "spatial_pattern_id": "poly_a",
        "x_axis": "time",
        "y_axis": "pitch",
        "sound": {
          "mode": "synth",
          "root_midi": 36,
          "pitch_range": 12,
          "note_semitones": 12
        },
        "time": {
          "n_steps": 8,
          "bpm": 150,
          "beats_per_step": 1.0,
          "time_pattern": 1,
          "flow": "x"
        },
        "space": {
          "mode": "points-0",
          "pitch_cells": 5,
          "octave_cells": 4,
          "release_cells": 6,
          "center_x": null,
          "center_y": null
        }
      },
      "grid": {
        "time": 8,
        "pitch": 5
      },
      "grid_layout": {
        "time_flow": "x",
        "time_cells": 8,
        "pitch_cells": 5,
        "time_axis": "x",
        "pitch_axis": "y"
      },
      "source_points": [
        {
          "x": 1.0,
          "y": 1.0
        },
        {
          "x": 7.0,
          "y": 1.0
        },
        {
          "x": 8.0,
          "y": 5.0
        },
        {
          "x": 4.0,
          "y": 7.0
        },
        {
          "x": 1.0,
          "y": 5.0
        }
      ],
      "events": [
        {
          "step": 0,
          "time_beats": 0.0,
          "time_sec": 0.0,
          "x": 1.0,
          "y": 1.0,
          "midi": 36,
          "value": 36.0,
          "hit": true,
          "inside": true,
          "grid_col": 0,
          "grid_row": 0,
          "activations": [
            {
              "x": 1.0,
              "y": 1.0,
              "grid_col": 0,
              "grid_row": 0,
              "midi": 36,
              "value": 36.0,
              "hit": true,
              "release": 0.5
            },
            {
              "x": 1.0,
              "y": 5.0,
              "grid_col": 0,
              "grid_row": 3,
              "midi": 44,
              "value": 44.0,
              "hit": true,
              "release": 0.5
            }
          ]
        },
        {
          "step": 1,
          "time_beats": 1.0,
          "time_sec": 0.4,
          "x": 0.0,
          "y": 0.0,
          "midi": 0,
          "value": 0.0,
          "hit": false,
          "inside": false,
          "grid_col": -1,
          "grid_row": -1
        },
        {
          "step": 2,
          "time_beats": 2.0,
          "time_sec": 0.8,
          "x": 0.0,
          "y": 0.0,
          "midi": 0,
          "value": 0.0,
          "hit": false,
          "inside": false,
          "grid_col": -1,
          "grid_row": -1
        },
        {
          "step": 3,
          "time_beats": 3.0,
          "time_sec": 1.2000000000000002,
          "x": 4.0,
          "y": 7.0,
          "midi": 36,
          "value": 36.0,
          "hit": true,
          "inside": true,
          "grid_col": 3,
          "grid_row": 4,
          "activations": [
            {
              "x": 4.0,
              "y": 7.0,
              "grid_col": 3,
              "grid_row": 4,
              "midi": 36,
              "value": 36.0,
              "hit": true,
              "release": 0.5
            }
          ]
        },
        {
          "step": 4,
          "time_beats": 4.0,
          "time_sec": 1.6,
          "x": 0.0,
          "y": 0.0,
          "midi": 0,
          "value": 0.0,
          "hit": false,
          "inside": false,
          "grid_col": -1,
          "grid_row": -1
        },
        {
          "step": 5,
          "time_beats": 5.0,
          "time_sec": 2.0,
          "x": 0.0,
          "y": 0.0,
          "midi": 0,
          "value": 0.0,
          "hit": false,
          "inside": false,
          "grid_col": -1,
          "grid_row": -1
        },
        {
          "step": 6,
          "time_beats": 6.0,
          "time_sec": 2.4000000000000004,
          "x": 7.0,
          "y": 1.0,
          "midi": 36,
          "value": 36.0,
          "hit": true,
          "inside": true,
          "grid_col": 6,
          "grid_row": 0,
          "activations": [
            {
              "x": 7.0,
              "y": 1.0,
              "grid_col": 6,
              "grid_row": 0,
              "midi": 36,
              "value": 36.0,
              "hit": true,
              "release": 0.5
            }
          ]
        },
        {
          "step": 7,
          "time_beats": 7.0,
          "time_sec": 2.8000000000000003,
          "x": 8.0,
          "y": 5.0,
          "midi": 44,
          "value": 44.0,
          "hit": true,
          "inside": true,
          "grid_col": 7,
          "grid_row": 3,
          "activations": [
            {
              "x": 8.0,
              "y": 5.0,
              "grid_col": 7,
              "grid_row": 3,
              "midi": 44,
              "value": 44.0,
              "hit": true,
              "release": 0.5
            }
          ]
        }
      ]
    }
  },
  "features": [
    {
      "type": "Feature",
      "id": "poly_a",
      "properties": {
        "xypi_id": "poly_a"
      },
      "geometry": {
        "type": "Polygon",
        "coordinates": [
          [
            [
              1.0,
              1.0
            ],
            [
              7.0,
              1.0
            ],
            [
              8.0,
              5.0
            ],
            [
              4.0,
              7.0
            ],
            [
              1.0,
              5.0
            ],
            [
              1.0,
              1.0
            ]
          ]
        ]
      }
    }
  ]
}